NORAD_CAT_ID,OBJECT_NAME,OBJECT_TYPE,EPOCH,MEAN_MOTION,ECCENTRICITY,INCLINATION,RA_OF_ASC_NODE,ARG_OF_PERICENTER,MEAN_ANOMALY,BSTAR,MEAN_MOTION_DOT,MEAN_MOTION_DDOT,TLE_LINE0,TLE_LINE1,TLE_LINE2,SEMIMAJOR_AXIS,PERIOD,APOGEE,PERIGEE,DECAYED
51871.0,STARLINK-3567,PAYLOAD,2022-10-10 12:08:51,15.08844648,0.0001503,53.2171,203.4663,58.9666,301.1473,0.00015191,2.131e-05,0.0,0 STARLINK-3567,1 51871U 22022V   22283.50615717  .00002131  00000-0  15191-3 0  9996,2 51871  53.2171 203.4663 0001503  58.9666 301.1473 15.08844648 35090,6917.866,95.437,540.771,538.691,0.0
51871.0,STARLINK-3567,PAYLOAD,2022-10-11 04:02:44,15.08835028,0.0001645,53.2175,200.4917,66.7465,293.37,3.4787e-05,2.66e-06,0.0,0 STARLINK-3567,1 51871U 22022V   22284.16856741  .00000266  00000-0  34787-4 0  9993,2 51871  53.2175 200.4917 0001645  66.7465 293.3700 15.08835028 35125,6917.896,95.438,540.899,538.623,0.0
51871.0,STARLINK-3567,PAYLOAD,2022-10-11 18:21:12,15.08841197,0.0001606,53.2172,197.8156,63.5191,296.5966,-1.8308e-05,-5.79e-06,0.0,0 STARLINK-3567,1 51871U 22022V   22284.76472474 -.00000579  00000-0 -18308-4 0  9996,2 51871  53.2172 197.8156 0001606  63.5191 296.5966 15.08841197 35284,6917.877,95.437,540.8530000000002,538.631,0.0
51871.0,STARLINK-3567,PAYLOAD,2022-10-12 03:53:30,15.0884191,0.0001553,53.217,196.0321,58.9773,301.1372,-1.3711e-05,-5.06e-06,0.0,0 STARLINK-3567,1 51871U 22022V   22285.16216319 -.00000506  00000-0 -13711-4 0  9998,2 51871  53.2170 196.0321 0001553  58.9773 301.1372 15.08841910 35278,6917.875,95.437,540.814,538.665,0.0
51871.0,STARLINK-3567,PAYLOAD,2022-10-13 03:44:18,15.08834347,0.000154,53.2169,191.572,63.2474,296.8675,0.00011393,1.525e-05,0.0,0 STARLINK-3567,1 51871U 22022V   22286.15576413  .00001525  00000-0  11393-3 0  9995,2 51871  53.2169 191.5720 0001540  63.2474 296.8675 15.08834347 35498,6917.898,95.438,540.828,538.697,0.0
51871.0,STARLINK-3567,PAYLOAD,2022-10-14 03:35:05,15.08834511,0.000175,53.217,187.1134,62.7051,297.4119,4.1153e-05,3.67e-06,0.0,0 STARLINK-3567,1 51871U 22022V   22287.14937244  .00000367  00000-0  41153-4 0  9999,2 51871  53.2170 187.1134 0001750  62.7051 297.4119 15.08834511 35570,6917.897,95.438,540.9730000000002,538.552,0.0
51871.0,STARLINK-3567,PAYLOAD,2022-10-14 09:56:37,15.08839241,0.0001766999999999,53.2168,185.9257,73.4406,286.678,8.829299999999999e-05,1.117e-05,0.0,0 STARLINK-3567,1 51871U 22022V   22287.41432869  .00001117  00000-0  88293-4 0  9992,2 51871  53.2168 185.9257 0001767  73.4406 286.6780 15.08839241 35681,6917.8830000000025,95.438,540.97,538.525,0.0
51871.0,STARLINK-3567,PAYLOAD,2022-10-15 00:15:05,15.08862827,0.0001956999999999,53.2177,183.2445,49.8669,310.2494,-0.00018209,-3.187e-05,0.0,0 STARLINK-3567,1 51871U 22022V   22288.01048287 -.00003187  00000-0 -18209-3 0  9996,2 51871  53.2177 183.2445 0001957  49.8669 310.2494 15.08862827 35705,6917.811,95.436,541.029,538.322,0.0
51871.0,STARLINK-3567,PAYLOAD,2022-10-15 19:19:44,15.08829632,0.0001365,53.2156,179.6765,56.6837,303.4285,-2.8374e-05,-7.39e-06,0.0,0 STARLINK-3567,1 51871U 22022V   22288.80537784 -.00000739  00000-0 -28374-4 0  9993,2 51871  53.2156 179.6765 0001365  56.6837 303.4285 15.08829632 35891,6917.9119999999975,95.438,540.721,538.8330000000002,0.0
51871.0,STARLINK-3567,PAYLOAD,2022-10-16 03:16:41,15.08820154,0.0001523,53.2164,178.19099999999997,65.1623,294.9527,-0.00010637,-1.98e-05,0.0,0 STARLINK-3567,1 51871U 22022V   22289.13658950 -.00001980  00000-0 -10637-3 0  9990,2 51871  53.2164 178.1910 0001523  65.1623 294.9527 15.08820154 35871,6917.941,95.439,540.86,538.752,0.0
51871.0,STARLINK-3567,PAYLOAD,2022-10-16 19:10:32,15.08831086,0.000152,53.2173,175.2177,68.9513,291.1641,-5.7763e-05,-1.207e-05,0.0,0 STARLINK-3567,1 51871U 22022V   22289.79898638 -.00001207  00000-0 -57763-4 0  9995,2 51871  53.2173 175.2177 0001520  68.9513 291.1641 15.08831086 35973,6917.908,95.438,540.8240000000002,538.721,0.0
51871.0,STARLINK-3567,PAYLOAD,2022-10-17 09:28:59,15.08841546,0.0001565999999999,53.2165,172.541,64.1266,295.9888,0.00011175,1.491e-05,0.0,0 STARLINK-3567,1 51871U 22022V   22290.39513595  .00001491  00000-0  11175-3 0  9998,2 51871  53.2165 172.5410 0001566  64.1266 295.9888 15.08841546 36065,6917.876,95.437,540.8240000000002,538.6569999999998,0.0
51871.0,STARLINK-3567,PAYLOAD,2022-10-17 19:01:19,15.08829908,0.0001585999999999,53.2165,170.7574,64.6317,295.4839,0.00014315,1.99e-05,0.0,0 STARLINK-3567,1 51871U 22022V   22290.79258305  .00001990  00000-0  14315-3 0  9990,2 51871  53.2165 170.7574 0001586  64.6317 295.4839 15.08829908 36126,6917.911,95.438,540.873,538.679,0.0
51871.0,STARLINK-3567,PAYLOAD,2022-10-18 01:22:51,15.08833125,0.0001846,53.2167,169.5684,76.6639,283.4559,0.00026778,3.975e-05,0.0,0 STARLINK-3567,1 51871U 22022V   22291.05753986  .00003975  00000-0  26778-3 0  9996,2 51871  53.2167 169.5684 0001846  76.6639 283.4559 15.08833125 36239,6917.901,95.438,541.043,538.489,0.0
51871.0,STARLINK-3567,PAYLOAD,2022-10-18 15:41:20,15.08829727,0.0001864,53.2168,166.8919,62.6908,297.4274,7.996e-05,9.84e-06,0.0,0 STARLINK-3567,1 51871U 22022V   22291.65371035  .00000984  00000-0  79960-4 0  9992,2 51871  53.2168 166.8919 0001864  62.6908 297.4274 15.08829727 36327,6917.9119999999975,95.438,541.066,538.487,0.0
51871.0,STARLINK-3567,PAYLOAD,2022-10-19 01:13:39,15.0883021,0.0001684,53.2168,165.1072,67.1815,292.9355,-3.0351e-05,-7.71e-06,0.0,0 STARLINK-3567,1 51871U 22022V   22292.05115516 -.00000771  00000-0 -30351-4 0  9994,2 51871  53.2168 165.1072 0001684  67.1815 292.9355 15.08830210 36314,6917.91,95.438,540.94,538.61,0.0
51871.0,STARLINK-3567,PAYLOAD,2022-10-19 09:10:35,15.08831479,0.0001706999999999,53.2167,163.6207,66.2035,293.9136,-5.6173e-05,-1.182e-05,0.0,0 STARLINK-3567,1 51871U 22022V   22292.38235662 -.00001182  00000-0 -56173-4 0  9992,2 51871  53.2167 163.6207 0001707  66.2035 293.9136 15.08831479 36435,6917.906,95.438,540.952,538.591,0.0
51871.0,STARLINK-3567,PAYLOAD,2022-10-19 21:53:39,15.08844959,0.0001688,53.2166,161.2413,64.7365,295.3802,1.8688e-05,9e-08,0.0,0 STARLINK-3567,1 51871U 22022V   22292.91226475  .00000009  00000-0  18688-4 0  9997,2 51871  53.2166 161.2413 0001688  64.7365 295.3802 15.08844959 36516,6917.865,95.437,540.898,538.562,0.0
51871.0,STARLINK-3567,PAYLOAD,2022-10-20 01:04:25,15.08847236,0.0001698,53.2166,160.6466,65.1785,294.9384,3.7868e-05,3.15e-06,0.0,0 STARLINK-3567,1 51871U 22022V   22293.04474227  .00000315  00000-0  37868-4 0  9993,2 51871  53.2166 160.6466 0001698  65.1785 294.9384 15.08847236 36532,6917.858,95.437,540.898,538.549,0.0
51871.0,STARLINK-3567,PAYLOAD,2022-10-20 21:44:26,15.08839094,0.000167,53.2165,156.7805,65.7105,294.4061,0.00013015,1.784e-05,0.0,0 STARLINK-3567,1 51871U 22022V   22293.90586297  .00001784  00000-0  13015-3 0  9997,2 51871  53.2165 156.7805 0001670  65.7105 294.4061 15.08839094 36660,6917.8830000000025,95.438,540.903,538.5930000000002,0.0
51871.0,STARLINK-3567,PAYLOAD,2022-10-21 00:55:12,15.08837629,0.0001648,53.2164,156.1857,65.0188,295.0975,0.00011366,1.521e-05,0.0,0 STARLINK-3567,1 51871U 22022V   22294.03834454  .00001521  00000-0  11366-3 0  9999,2 51871  53.2164 156.1857 0001648  65.0188 295.0975 15.08837629 36617,6917.888000000001,95.438,540.893,538.613,0.0
51871.0,STARLINK-3567,PAYLOAD,2022-10-21 16:49:04,15.08845441,0.0001636999999999,53.2156,153.2129,65.0939,295.0224,5.7833e-06,-1.96e-06,0.0,0 STARLINK-3567,1 51871U 22022V   22294.70074256 -.00000196  00000-0  57833-5 0  9998,2 51871  53.2156 153.2129 0001637  65.0939 295.0224 15.08845441 36786,6917.864000000001,95.437,540.861,538.596,0.0
51871.0,STARLINK-3567,PAYLOAD,2022-10-22 07:07:32,15.08845818,0.0001582,53.2151,150.5357,60.5373,299.5777,1.2235e-05,-9.3e-07,0.0,0 STARLINK-3567,1 51871U 22022V   22295.29690035 -.00000093  00000-0  12235-4 0  9994,2 51871  53.2151 150.5357 0001582  60.5373 299.5777 15.08845818 36875,6917.863,95.437,540.822,538.633,0.0
51871.0,STARLINK-3567,PAYLOAD,2022-10-22 21:26:00,15.08843798,0.0001513,53.2188,147.8622,72.5173,287.5985,-8.646600000000001e-05,-1.664e-05,0.0,0 STARLINK-3567,1 51871U 22022V   22295.89306511 -.00001664  00000-0 -86466-4 0  9996,2 51871  53.2188 147.8622 0001513  72.5173 287.5985 15.08843798 36899,6917.869000000002,95.437,540.78,538.687,0.0
51871.0,STARLINK-3567,PAYLOAD,2022-10-23 00:36:47,15.08835026,0.0001683,53.2173,147.2669,65.5605,294.5563,2.3906e-05,9.2e-07,0.0,0 STARLINK-3567,1 51871U 22022V   22296.02554698  .00000092  00000-0  23906-4 0  9995,2 51871  53.2173 147.2669 0001683  65.5605 294.5563 15.08835026 36983,6917.896,95.438,540.925,538.596,0.0
51871.0,STARLINK-3567,PAYLOAD,2022-10-23 18:06:00,15.08846027,0.0001486999999999,53.2166,143.9948,57.4886,302.625,8.5378e-05,1.071e-05,0.0,0 STARLINK-3567,1 51871U 22022V   22296.75417639  .00001071  00000-0  85378-4 0  9997,2 51871  53.2166 143.9948 0001487  57.4886 302.6250 15.08846027 37091,6917.861999999999,95.437,540.756,538.698,0.0
51871.0,STARLINK-3567,PAYLOAD,2022-10-24 02:02:56,15.08843101,9.68e-05,53.2167,142.5039,82.8821,277.2281,2.6514e-05,1.34e-06,0.0,0 STARLINK-3567,1 51871U 22022V   22297.08537762  .00000134  00000-0  26514-4 0  9990,2 51871  53.2167 142.5039 0000968  82.8821 277.2281 15.08843101 37071,6917.871,95.437,540.406,539.066,0.0
51871.0,STARLINK-3567,PAYLOAD,2022-10-24 06:49:06,15.08839174,0.0001872,53.2162,141.6135,62.3032,297.8149,-3.023e-06,-3.36e-06,0.0,0 STARLINK-3567,1 51871U 22022V   22297.28410419 -.00000336  00000-0 -30230-5 0  9998,2 51871  53.2162 141.6135 0001872  62.3032 297.8149 15.08839174 37172,6917.8830000000025,95.438,541.043,538.453,0.0
51871.0,STARLINK-3567,PAYLOAD,2022-10-24 16:21:26,15.08830041,0.0001862,53.2143,139.8312,64.1463,295.9721,-7.5849e-06,-4.09e-06,0.0,0 STARLINK-3567,1 51871U 22022V   22297.68155138 -.00000409  00000-0 -75849-5 0  9992,2 51871  53.2143 139.8312 0001862  64.1463 295.9721 15.08830041 37230,6917.911,95.438,541.064,538.488,0.0
